ONEWEB-0113             
1 48050U 21025J   22051.55811262 -.00000255  00000+0 -73254-3 0  9994
2 48050  87.8938 273.6497 0001413  91.7943 268.3348 13.13471972 46486
ONEWEB-0112             
1 48051U 21025K   22051.54690947 -.00000107  00000+0 -32829-3 0  9998
2 48051  87.8827 273.5939 0001509  88.9446 271.1856 13.13471260 46493
ONEWEB-0156             
1 48052U 21025L   22051.55586175 -.00000264  00000+0 -75821-3 0  9990
2 48052  87.8944 273.6219 0001525  86.5669 273.5635 13.13467567 46479
ONEWEB-0161             
1 48053U 21025M   22051.52898694  .00000258  00000+0  67089-3 0  9998
2 48053  87.8876 273.6224 0001677  90.4868 269.6453 13.13471490 46400
ONEWEB-0158             
1 48054U 21025N   22051.56932707 -.00000236  00000+0 -68155-3 0  9990
2 48054  87.8935 273.6430 0001253  94.3086 265.8186 13.13469661 46533
ONEWEB-0157             
1 48055U 21025P   22051.59173506  .00000230  00000+0  59606-3 0  9991
2 48055  87.8911 273.6221 0001934  80.6353 279.4994 13.13470743 46471
ONEWEB-0162             
1 48056U 21025Q   22051.55363820 -.00000241  00000+0 -69596-3 0  9991
2 48056  87.8854 273.5856 0001537  80.0129 280.1174 13.13467974 46443
ONEWEB-0155             
1 48057U 21025R   22051.57603863 -.00000159  00000+0 -47145-3 0  9992
2 48057  87.8893 273.6126 0001623  93.5084 266.6230 13.13470449 46581
ONEWEB-0149             
1 48058U 21025S   22051.59620441  .00000324  00000+0  85178-3 0  9996
2 48058  87.8931 273.6038 0001560  62.8613 297.2675 13.13468309 46398
ONEWEB-0148             
1 48059U 21025T   22051.56036017 -.00000267  00000+0 -76583-3 0  9992
2 48059  87.8902 273.6062 0002141  62.3635 297.7712 13.13470583 46517
ONEWEB-0160             
1 48060U 21025U   22051.57825678 -.00000058  00000+0 -19415-3 0  9993
2 48060  87.8882 273.6129 0000610 144.5084 215.6086 13.13468881 46465
ONEWEB-0163             
1 48061U 21025V   22051.56259732 -.00000275  00000+0 -78887-3 0  9994
2 48061  87.8950 273.6622 0002230  82.9632 277.1750 13.13470859 46586
ONEWEB-0159             
1 48062U 21025W   22051.55139473 -.00000156  00000+0 -46329-3 0  9997
2 48062  87.8927 273.5711 0002099  75.9671 284.1692 13.13468905 46501
ONEWEB-0164             
1 48063U 21025X   22051.53346354  .00000211  00000+0  54330-3 0  9995
2 48063  87.8958 273.6758 0001603 100.0512 260.0798 13.13470873 46486
ONEWEB-0167             
1 48064U 21025Y   22051.56483753 -.00000297  00000+0 -84765-3 0  9995
2 48064  87.8912 273.6250 0001949  80.6629 279.4721 13.13468487 46476
ONEWEB-0166             
1 48065U 21025Z   22051.58500621  .00000080  00000+0  18512-3 0  9997
2 48065  87.8824 273.5922 0001797  85.9653 274.1681 13.13469901 46558
ONEWEB-0151             
1 48066U 21025AA  22051.58724080  .00000160  00000+0  40279-3 0  9999
2 48066  87.8925 273.6238 0001677 102.4406 257.6911 13.13470736 46493
ONEWEB-0170             
1 48067U 21025AB  22051.59396577  .00000305  00000+0  79890-3 0  9999
2 48067  87.8954 273.6575 0001724 126.2289 233.9000 13.13470986 46455
ONEWEB-0168             
1 48068U 21025AC  22051.58051875 -.00000053  00000+0 -17889-3 0  9990
2 48068  87.8936 273.6417 0001741  85.6991 274.4337 13.13469113 46462
ONEWEB-0173             
1 48069U 21025AD  22051.57379917 -.00000191  00000+0 -55750-3 0  9992
2 48069  87.8938 273.6503 0002147  91.4207 268.7168 13.13469125 46705
ONEWEB-0171             
1 48070U 21025AE  22051.53122475  .00000248  00000+0  64301-3 0  9998
2 48070  87.8868 273.5894 0001712  79.0821 281.0500 13.13468200 46512
ONEWEB-0172             
1 48071U 21025AF  22051.58683161  .00000139  00000+0  34692-3 0  9997
2 48071  87.8913 273.7080 0001846  95.9344 264.1996 13.13472683 47419
ONEWEB-0174             
1 48072U 21025AG  22051.57156494 -.00000241  00000+0 -69424-3 0  9998
2 48072  87.8881 273.6029 0002027  59.8158 300.3171 13.13470658 46732
ONEWEB-0175             
1 48073U 21025AH  22051.52226061  .00000281  00000+0  73508-3 0  9992
2 48073  87.8841 273.6411 0001567 111.6449 248.4847 13.13471326 46388
ONEWEB-0177             
1 48074U 21025AJ  22051.53571900  .00000170  00000+0  43030-3 0  9993
2 48074  87.8948 273.6581 0002426  85.6049 274.5357 13.13469636 46574
ONEWEB-0178             
1 48075U 21025AK  22051.55250299 -.00000200  00000+0 -58162-3 0  9999
2 48075  87.8880 273.5974 0001940  85.6268 274.5083 13.13467238 46626
ONEWEB-0108             
1 48076U 21025AL  22051.58947974  .00000220  00000+0  56793-3 0  9994
2 48076  87.8921 273.6293 0001247  72.0016 288.1249 13.13469305 46553
ONEWEB-0169             
1 48077U 21025AM  22051.54467263 -.00000073  00000+0 -23470-3 0  9993
2 48077  87.8951 273.6678 0001467  74.1552 285.9739 13.13470653 45204
ONEWEB-0176             
1 48210U 21031A   22051.56101030 -.00000150  00000+0 -43949-3 0  9997
2 48210  87.9029 243.2592 0001828  92.1624 267.9715 13.14501610 41051
ONEWEB-0184             
1 48211U 21031B   22051.53562512  .00000003  00000+0 -26270-4 0  9996
2 48211  87.8921 243.2459 0002311 131.3780 228.7548 13.14500391 41022
ONEWEB-0179             
1 48212U 21031C   22051.58001711  .00000046  00000+0  90442-4 0  9999
2 48212  87.8924 243.2302 0001971  88.2907 271.8449 13.14505356 41075
ONEWEB-0180             
1 48213U 21031D   22051.53774714 -.00000011  00000+0 -63305-4 0  9997
2 48213  87.8919 243.2452 0001821  86.0338 274.0999 13.14502370 40958
ONEWEB-0218             
1 48214U 21031E   22051.55888114 -.00000211  00000+0 -60419-3 0  9994
2 48214  87.8908 243.2175 0002754 119.5540 240.5865 13.14505915 41119
ONEWEB-0209             
1 48215U 21031F   22051.54831476 -.00000175  00000+0 -50692-3 0  9994
2 48215  87.8936 243.2488 0001779  90.8664 269.2670 13.14500932 41118
ONEWEB-0198             
1 48216U 21031G   22051.53352558  .00000095  00000+0  22060-3 0  9990
2 48216  87.8987 243.2650 0002381 101.0112 259.1286 13.14502729 41228
ONEWEB-0189             
1 48217U 21031H   22051.54618507 -.00000116  00000+0 -34681-3 0  9999
2 48217  87.8918 243.2278 0002364 100.0856 260.0541 13.14499939 40967
ONEWEB-0196             
1 48218U 21031J   22051.52504125  .00000168  00000+0  41874-3 0  9995
2 48218  87.8938 243.2348 0001665  99.0266 261.1053 13.14499852 40967
ONEWEB-0183             
1 48219U 21031K   22051.57369662 -.00000063  00000+0 -20323-3 0  9998
2 48219  87.8942 243.2351 0001699  86.4386 273.6938 13.14501696 41069
ONEWEB-0185             
1 48220U 21031L   22051.52716330  .00000205  00000+0  51958-3 0  9997
2 48220  87.8929 243.2481 0001838  86.5365 273.5975 13.14500457 40987
ONEWEB-0187             
1 48221U 21031M   22051.57791364  .00000047  00000+0  92614-4 0  9992
2 48221  87.8940 243.2409 0001792  86.5470 273.5864 13.14500418 41005
ONEWEB-0192             
1 48222U 21031N   22051.55041201 -.00000146  00000+0 -42874-3 0  9993
2 48222  87.8925 243.2208 0001794 101.5474 258.5857 13.14500815 40915
ONEWEB-0219             
1 48223U 21031P   22051.53141263  .00000264  00000+0  67851-3 0  9992
2 48223  87.8919 243.2203 0001711  89.9965 270.1361 13.14502579 41119
ONEWEB-0202             
1 48224U 21031Q   22051.58636773  .00000139  00000+0  34065-3 0  9995
2 48224  87.8941 243.2399 0002782 110.6909 249.4519 13.14500883 41109
ONEWEB-0204             
1 48225U 21031R   22051.57156955 -.00000054  00000+0 -18007-3 0  9990
2 48225  87.8958 243.2381 0000927  76.6245 283.4988 13.14500227 40998
ONEWEB-0205             
1 48226U 21031S   22051.52082412  .00000180  00000+0  45174-3 0  9995
2 48226  87.8937 243.2387 0002057 132.3693 227.7611 13.14501722 41003
ONEWEB-0206             
1 48227U 21031T   22051.56944109 -.00000143  00000+0 -42032-3 0  9991
2 48227  87.8910 243.2153 0001831  82.2671 277.8667 13.14505538 40964
ONEWEB-0182             
1 48228U 21031U   22051.56311314 -.00000203  00000+0 -58270-3 0  9996
2 48228  87.8955 243.2554 0001865  86.0368 274.0975 13.14501022 41170
ONEWEB-0186             
1 48229U 21031V   22051.57579835 -.00000023  00000+0 -96152-4 0  9994
2 48229  87.8925 243.2213 0001985  93.2100 266.9256 13.14500851 41123
ONEWEB-0181             
1 48230U 21031W   22051.78090459 -.00000225  00000+0 -64251-3 0  9997
2 48230  87.9028 243.1904 0001631  94.9043 265.2273 13.14502188 41012
ONEWEB-0188             
1 48231U 21031X   22051.59272452  .00000148  00000+0  36461-3 0  9996
2 48231  87.8946 243.2492 0001795  87.8443 272.2892 13.14500920 40881
ONEWEB-0220             
1 48232U 21031Y   22051.55464103 -.00000322  00000+0 -90206-3 0  9992
2 48232  87.8917 243.2152 0002167  90.0301 270.1077 13.14501198 41146
ONEWEB-0165             
1 48233U 21031Z   22051.58425523  .00000118  00000+0  28327-3 0  9995
2 48233  87.8939 243.2461 0001999  90.2871 269.8487 13.14501099 41106
ONEWEB-0199             
1 48234U 21031AA  22051.56735209 -.00000069  00000+0 -22118-3 0  9998
2 48234  87.8929 243.2446 0001851  93.1085 267.0257 13.14501580 41004
ONEWEB-0203             
1 48235U 21031AB  22051.55676722 -.00000202  00000+0 -57858-3 0  9990
2 48235  87.8947 243.2066 0001587 114.9881 245.1414 13.14505627 41014
ONEWEB-0197             
1 48236U 21031AC  22051.54408306 -.00000081  00000+0 -25359-3 0  9997
2 48236  87.8935 243.2446 0001754  94.6339 265.4991 13.14501393 40922
ONEWEB-0194             
1 48237U 21031AD  22051.58848002  .00000189  00000+0  47650-3 0  9998
2 48237  87.8928 243.2359 0001238 111.2982 248.8280 13.14501034 41104
ONEWEB-0193             
1 48238U 21031AE  22051.52929536  .00000324  00000+0  84044-3 0  9994
2 48238  87.8937 243.2443 0001736 102.5330 257.5994 13.14503463 41042
ONEWEB-0191             
1 48239U 21031AF  22051.53986560 -.00000077  00000+0 -24292-3 0  9992
2 48239  87.8922 243.2500 0001558 103.0642 257.0662 13.14501503 40909
ONEWEB-0195             
1 48240U 21031AG  22051.51870495  .00000204  00000+0  51487-3 0  9997
2 48240  87.8926 243.2383 0002296 100.3263 259.8125 13.14505562 40883
